{"type":"FeatureCollection","properties":{"source":"Polígonos sintéticos para pruebas; no representan límites administrativos reales."},"features":[{"type":"Feature","properties":{"nombre":"Centro"},"geometry":{"type":"Polygon","coordinates":[[[-77.10,-12.10],[-76.98,-12.10],[-76.98,-11.98],[-77.10,-11.98],[-77.10,-12.10]]]}},{"type":"Feature","properties":{"nombre":"Sur"},"geometry":{"type":"Polygon","coordinates":[[[-77.12,-12.20],[-76.98,-12.20],[-76.98,-12.10],[-77.12,-12.10],[-77.12,-12.20]]]}}]}
